OBJECT_NAME,OBJECT_ID,EPOCH,MEAN_MOTION,ECCENTRICITY,INCLINATION,RA_OF_ASC_NODE,ARG_OF_PERICENTER,MEAN_ANOMALY,EPHEMERIS_TYPE,CLASSIFICATION_TYPE,NORAD_CAT_ID,ELEMENT_SET_NO,REV_AT_EPOCH,BSTAR,MEAN_MOTION_DOT,MEAN_MOTION_DDOT
BEIDOU-2 IGSO-5 (C10),2011-073A,2026-06-18T16:01:15.839616,1.00272695,.01139717,47.6748,271.5267,221.7702,105.6518,0,U,37948,999,5314,0,-.192E-5,0
LUCH 5A (SDCM/PRN 140),2011-074B,2026-06-18T12:35:26.577888,1.00270425,.00023353,8.7582,73.7878,26.9496,161.8222,0,U,37951,999,5306,0,-.6E-6,0
BEIDOU-2 G5 (C05),2012-008A,2026-06-18T23:27:41.872608,1.00272333,.0009044,3.5789,69.6876,272.8470,335.2536,0,U,38091,999,5238,0,.5E-6,0
BEIDOU-2 M3 (C11),2012-018A,2026-06-18T06:18:09.091872,1.86229668,.00201216,55.7570,304.8392,273.7954,85.9641,0,U,38250,999,9596,0,-.77E-6,0
BEIDOU-2 M4 (C12),2012-018B,2026-06-18T04:40:39.880992,1.86229337,.00112968,55.6572,304.0554,275.6093,84.2520,0,U,38251,999,9596,0,-.76E-6,0
SES-5 (EGNOS/PRN 136),2012-036A,2026-06-18T12:56:38.396256,1.00269306,.000172,0.0452,317.9851,125.6785,22.2406,0,U,38652,999,4447,0,.27E-6,0
BEIDOU-2 M6 (C14),2012-050B,2026-06-17T21:42:41.652864,1.86230869,.00136703,56.5449,62.8706,357.5201,2.5153,0,U,38775,999,9332,0,-.54E-6,0
GSAT-10 (GAGAN/PRN 128),2012-051B,2026-06-18T21:52:15.640032,1.00272150,.00077639,0.0757,261.8446,186.2957,230.0771,0,U,38779,999,5011,0,-.171E-5,0
GPS BIIF-3  (PRN 24),2012-053A,2026-06-18T19:29:07.257984,2.00567462,.0180385,53.5864,143.5327,65.7792,296.0607,0,U,38833,999,9947,0,.47E-6,0
GSAT0103 (GALILEO-FM3),2012-055A,2026-06-17T11:24:53.398656,1.70473345,.00047719,55.8068,101.5377,306.3432,53.5821,0,U,38857,999,8501,0,-.11E-6,0
BEIDOU-2 G6 (C02),2012-059A,2026-06-18T20:09:55.247328,1.00271655,.0009615,4.4263,73.5051,324.4090,255.6782,0,U,38953,999,4992,0,-.183E-5,0
LUCH 5B (SDCM/PRN 125),2012-061A,2026-06-18T21:24:08.583264,1.00272094,.00024653,10.4892,49.8655,150.1855,11.8366,0,U,38977,999,4962,0,-.148E-5,0
COSMOS 2485 (747),2013-019A,2026-06-16T21:50:24.393120,2.13103258,.00231353,65.4195,73.6140,234.1379,125.6814,0,U,39155,999,10227,0,-.2E-6,0
GPS BIIF-4  (PRN 27),2013-023A,2026-06-18T16:17:37.938048,2.00563410,.01415192,54.5028,268.9129,51.0513,310.2401,0,U,39166,999,9591,0,-.41E-6,0
IRNSS-1A,2013-034A,2026-06-18T21:29:26.733984,1.00275723,.00175894,35.7241,63.8469,183.2529,37.3106,0,U,39199,999,4738,0,.51E-6,0
GPS BIIF-5  (PRN 30),2014-008A,2026-06-18T16:20:00.333888,2.00559851,.00842194,53.6549,149.2587,231.2964,127.9208,0,U,39533,999,8971,0,.5E-6,0
ASTRA 5B (EGNOS/PRN 123),2014-011B,2026-06-18T21:35:22.504992,1.00272970,.00019547,0.0663,310.0831,147.5970,156.8110,0,U,39617,999,4468,0,.131E-5,0
COSMOS 2492 (754),2014-012A,2026-06-18T06:38:22.527168,2.13103143,.0010348,65.2971,313.8989,324.5914,35.3281,0,U,39620,999,9526,0,-.55E-6,0
IRNSS-1B,2014-017A,2026-06-18T18:19:03.572256,1.00276864,.0023149,28.9195,240.3764,189.5120,167.0529,0,U,39635,999,4480,0,.112E-5,0
LUCH 5V (SDCM/PRN 141),2014-023A,2026-06-18T19:16:58.982880,1.00273727,.00018645,5.1369,69.7269,50.0917,171.1841,0,U,39727,999,4437,0,-.277E-5,0
GPS BIIF-6  (PRN 06),2014-026A,2026-06-17T23:00:49.316832,2.00560834,.003817,56.4979,331.4873,326.5547,33.1958,0,U,39741,999,8855,0,-.86E-6,0
COSMOS 2500 (755),2014-032A,2026-06-18T10:42:48.439008,2.13105740,.00074007,65.2319,313.6405,184.7719,175.2102,0,U,40001,999,9348,0,-.55E-6,0
GPS BIIF-7  (PRN 09),2014-045A,2026-06-18T01:12:59.315328,2.00558400,.00333488,55.3537,88.4306,118.2439,242.0957,0,U,40105,999,8609,0,-.19E-6,0
GSAT0201 (GALILEO 5),2014-050A,2026-06-17T10:00:23.303232,1.85519962,.16745574,48.8753,273.4270,179.4035,180.8790,0,U,40128,999,7832,0,-.52E-6,0
GSAT0202 (GALILEO 6),2014-050B,2026-06-18T05:04:29.700768,1.85520552,.1675952,48.8910,272.4799,180.1594,179.8332,0,U,40129,999,8050,0,-.58E-6,0
IRNSS-1C,2014-061A,2026-06-18T21:37:54.135264,1.00269060,.0022696,6.5218,88.8990,2.6506,223.0203,0,U,40269,999,4270,0,-.169E-5,0
GPS BIIF-8  (PRN 03),2014-068A,2026-06-17T22:05:35.381760,2.00576133,.00670716,56.9881,30.9264,70.6155,290.1646,0,U,40294,999,8522,0,-.79E-6,0
COSMOS 2501 (702K),2014-075A,2026-06-18T05:44:28.511232,2.13101232,.0022632,63.6163,190.3355,212.5216,147.3839,0,U,40315,999,8987,0,.57E-6,0
GPS BIIF-9  (PRN 26),2015-013A,2026-06-18T13:23:53.187072,2.00551281,.0109553,53.1677,204.1208,40.1397,320.7269,0,U,40534,999,8185,0,.35E-6,0
GSAT0203 (GALILEO 7),2015-017A,2026-06-17T19:11:07.295136,1.70476090,.0002098,56.7854,341.5787,276.4201,83.5494,0,U,40544,999,6921,0,-.91E-6,0
GSAT0204 (GALILEO 8),2015-017B,2026-06-17T11:14:46.988160,1.70475617,.00019092,56.7938,341.6062,248.2807,111.6927,0,U,40545,999,3225,0,-.91E-6,0
